[{"OBJECT_NAME":"WILDFIRE 5","OBJECT_ID":"2023-133N","EPOCH":"2026-03-09T15:05:21.111648","MEAN_MOTION":13.85448011,"ECCENTRICITY":0.0004913,"INCLINATION":81.0005,"RA_OF_ASC_NODE":103.3656,"ARG_OF_PERICENTER":278.9897,"MEAN_ANOMALY":81.0704,"EPHEMERIS_TYPE":0,"CLASSIFICATION_TYPE":"U","NORAD_CAT_ID":57769,"ELEMENT_SET_NO":999,"REV_AT_EPOCH":12724,"BSTAR":6.7604e-5,"MEAN_MOTION_DOT":8.8e-7,"MEAN_MOTION_DDOT":0},{"OBJECT_NAME":"DELTA 1 DEB","OBJECT_ID":"1978-026KB","EPOCH":"2026-03-09T09:12:53.254944","MEAN_MOTION":13.888082,"ECCENTRICITY":0.00755108,"INCLINATION":98.7687,"RA_OF_ASC_NODE":269.6665,"ARG_OF_PERICENTER":203.9099,"MEAN_ANOMALY":278.0591,"EPHEMERIS_TYPE":0,"CLASSIFICATION_TYPE":"U","NORAD_CAT_ID":37664,"ELEMENT_SET_NO":999,"REV_AT_EPOCH":31748,"BSTAR":0.00011188868,"MEAN_MOTION_DOT":9.7e-7,"MEAN_MOTION_DDOT":0}]
